25417,ORBCOMM FM16,1998,100.26,-1.0,-,44.99,Inactive,0,LEO,Eastern Range Airspace,ORBCOMM,Unknown,Unknown,Pegasus,1 25417U 98046E   24143.51308934  .00002300  00000+0  82774-3 0  9998,2 25417  44.9933 224.3497 0003336 166.8485 193.2450 14.36289128348257,14.36289128,0.0003336,LEO
25418,ORBCOMM FM15,1998,100.28,45.0,-,45.0,Inactive,1,LEO,Eastern Range Airspace,ORBCOMM,Commercial,Communications,Pegasus,1 25418U 98046F   24142.28928871  .00002810  00000+0  10063-2 0  9997,2 25418  44.9967 234.2210 0003068 165.5171 194.5765 14.36002730347869,14.3600273,0.0003068,LEO
25419,ORBCOMM FM14,1998,100.27,45.0,-,45.0,Inactive,1,LEO,Eastern Range Airspace,ORBCOMM,Commercial,Communications,Pegasus,1 25419U 98046G   24143.57665255  .00002644  00000+0  94629-3 0  9991,2 25419  44.9953 227.2355 0001861 180.7567 240.5288 14.36188190348233,14.3618819,0.0001861,LEO
25475,ORBCOMM FM21,1998,100.32,45.0,-,45.01,Inactive,1,LEO,Eastern Range Airspace,ORBCOMM,Commercial,Communications,Pegasus,1 25475U 98053A   24141.61907145  .00003006  00000+0  10870-2 0  9999,2 25475  45.0086 325.7520 0000652 114.8116 245.2799 14.35364321340802,14.35364321,6.52e-05,LEO
25476,ORBCOMM FM22,1998,100.29,-1.0,-,45.01,Inactive,0,LEO,Eastern Range Airspace,ORBCOMM,Unknown,Unknown,Pegasus,1 25476U 98053B   24142.91487425  .00002659  00000+0  95678-3 0  9991,2 25476  45.0080 316.8742 0001815  77.7716 282.3334 14.35909204341341,14.35909204,0.0001815,LEO
25477,ORBCOMM FM23,1998,100.32,45.0,-,45.01,Inactive,1,LEO,Eastern Range Airspace,ORBCOMM,Commercial,Communications,Pegasus,1 25477U 98053C   24142.89976293  .00002481  00000+0  90453-3 0  9994,2 25477  45.0089 322.1289 0001303  85.4708 274.6288 14.35418183341136,14.35418183,0.0001303,LEO
25416,ORBCOMM FM20,1998,100.33,45.0,+,44.99,Active,1,LEO,Eastern Range Airspace,ORBCOMM,Commercial,Communications,Pegasus,1 25416U 98046D   24143.21471865  .00002095  00000+0  77340-3 0  9992,2 25416  44.9935 230.0801 0001710 241.2792 118.7883 14.35284032348096,14.35284032,0.000171,LEO
25420,ORBCOMM FM13,1998,100.32,45.0,+,45.0,Active,1,LEO,Eastern Range Airspace,ORBCOMM,Commercial,Communications,Pegasus,1 25420U 98046H   24143.26867083  .00002240  00000+0  82100-3 0  9995,2 25420  44.9969 233.6296 0003456 139.5688 220.5416 14.35452604348150,14.35452604,0.0003456,LEO
