<?xml version="1.0" encoding="UTF-8"?>
<ndm xmlns:xsi="http://www.w3.org/2001/XMLSchema-instance" xsi:noNamespaceSchemaLocation="https://sanaregistry.org/r/ndmxml_unqualified/ndmxml-2.0.0-master-2.0.xsd">
<omm id="CCSDS_OMM_VERS" version="2.0">
<header><CREATION_DATE/><ORIGINATOR/></header><body><segment><metadata><OBJECT_NAME>ORBCOMM FM20</OBJECT_NAME><OBJECT_ID>1998-046D</OBJECT_ID><CENTER_NAME>EARTH</CENTER_NAME><REF_FRAME>TEME</REF_FRAME><TIME_SYSTEM>UTC</TIME_SYSTEM><MEAN_ELEMENT_THEORY>SGP4</MEAN_ELEMENT_THEORY></metadata><data><meanElements><EPOCH>2024-05-22T05:09:11.691360</EPOCH><MEAN_MOTION>14.35284032</MEAN_MOTION><ECCENTRICITY>.000171</ECCENTRICITY><INCLINATION>44.9935</INCLINATION><RA_OF_ASC_NODE>230.0801</RA_OF_ASC_NODE><ARG_OF_PERICENTER>241.2792</ARG_OF_PERICENTER><MEAN_ANOMALY>118.7883</MEAN_ANOMALY></meanElements><tleParameters><EPHEMERIS_TYPE>0</EPHEMERIS_TYPE><CLASSIFICATION_TYPE>U</CLASSIFICATION_TYPE><NORAD_CAT_ID>25416</NORAD_CAT_ID><ELEMENT_SET_NO>999</ELEMENT_SET_NO><REV_AT_EPOCH>34809</REV_AT_EPOCH><BSTAR>.7734E-3</BSTAR><MEAN_MOTION_DOT>.2095E-4</MEAN_MOTION_DOT><MEAN_MOTION_DDOT>0</MEAN_MOTION_DDOT></tleParameters></data></segment></body></omm>
<omm id="CCSDS_OMM_VERS" version="2.0">
<header><CREATION_DATE/><ORIGINATOR/></header><body><segment><metadata><OBJECT_NAME>ORBCOMM FM16</OBJECT_NAME><OBJECT_ID>1998-046E</OBJECT_ID><CENTER_NAME>EARTH</CENTER_NAME><REF_FRAME>TEME</REF_FRAME><TIME_SYSTEM>UTC</TIME_SYSTEM><MEAN_ELEMENT_THEORY>SGP4</MEAN_ELEMENT_THEORY></metadata><data><meanElements><EPOCH>2024-05-22T12:18:50.918976</EPOCH><MEAN_MOTION>14.36289128</MEAN_MOTION><ECCENTRICITY>.0003336</ECCENTRICITY><INCLINATION>44.9933</INCLINATION><RA_OF_ASC_NODE>224.3497</RA_OF_ASC_NODE><ARG_OF_PERICENTER>166.8485</ARG_OF_PERICENTER><MEAN_ANOMALY>193.2450</MEAN_ANOMALY></meanElements><tleParameters><EPHEMERIS_TYPE>0</EPHEMERIS_TYPE><CLASSIFICATION_TYPE>U</CLASSIFICATION_TYPE><NORAD_CAT_ID>25417</NORAD_CAT_ID><ELEMENT_SET_NO>999</ELEMENT_SET_NO><REV_AT_EPOCH>34825</REV_AT_EPOCH><BSTAR>.82774E-3</BSTAR><MEAN_MOTION_DOT>.23E-4</MEAN_MOTION_DOT><MEAN_MOTION_DDOT>0</MEAN_MOTION_DDOT></tleParameters></data></segment></body></omm>
<omm id="CCSDS_OMM_VERS" version="2.0">
<header><CREATION_DATE/><ORIGINATOR/></header><body><segment><metadata><OBJECT_NAME>ORBCOMM FM15</OBJECT_NAME><OBJECT_ID>1998-046F</OBJECT_ID><CENTER_NAME>EARTH</CENTER_NAME><REF_FRAME>TEME</REF_FRAME><TIME_SYSTEM>UTC</TIME_SYSTEM><MEAN_ELEMENT_THEORY>SGP4</MEAN_ELEMENT_THEORY></metadata><data><meanElements><EPOCH>2024-05-21T06:56:34.544544</EPOCH><MEAN_MOTION>14.36002730</MEAN_MOTION><ECCENTRICITY>.0003068</ECCENTRICITY><INCLINATION>44.9967</INCLINATION><RA_OF_ASC_NODE>234.2210</RA_OF_ASC_NODE><ARG_OF_PERICENTER>165.5171</ARG_OF_PERICENTER><MEAN_ANOMALY>194.5765</MEAN_ANOMALY></meanElements><tleParameters><EPHEMERIS_TYPE>0</EPHEMERIS_TYPE><CLASSIFICATION_TYPE>U</CLASSIFICATION_TYPE><NORAD_CAT_ID>25418</NORAD_CAT_ID><ELEMENT_SET_NO>999</ELEMENT_SET_NO><REV_AT_EPOCH>34786</REV_AT_EPOCH><BSTAR>.10063E-2</BSTAR><MEAN_MOTION_DOT>.281E-4</MEAN_MOTION_DOT><MEAN_MOTION_DDOT>0</MEAN_MOTION_DDOT></tleParameters></data></segment></body></omm>
<omm id="CCSDS_OMM_VERS" version="2.0">
<header><CREATION_DATE/><ORIGINATOR/></header><body><segment><metadata><OBJECT_NAME>ORBCOMM FM14</OBJECT_NAME><OBJECT_ID>1998-046G</OBJECT_ID><CENTER_NAME>EARTH</CENTER_NAME><REF_FRAME>TEME</REF_FRAME><TIME_SYSTEM>UTC</TIME_SYSTEM><MEAN_ELEMENT_THEORY>SGP4</MEAN_ELEMENT_THEORY></metadata><data><meanElements><EPOCH>2024-05-22T13:50:22.780320</EPOCH><MEAN_MOTION>14.36188190</MEAN_MOTION><ECCENTRICITY>.0001861</ECCENTRICITY><INCLINATION>44.9953</INCLINATION><RA_OF_ASC_NODE>227.2355</RA_OF_ASC_NODE><ARG_OF_PERICENTER>180.7567</ARG_OF_PERICENTER><MEAN_ANOMALY>240.5288</MEAN_ANOMALY></meanElements><tleParameters><EPHEMERIS_TYPE>0</EPHEMERIS_TYPE><CLASSIFICATION_TYPE>U</CLASSIFICATION_TYPE><NORAD_CAT_ID>25419</NORAD_CAT_ID><ELEMENT_SET_NO>999</ELEMENT_SET_NO><REV_AT_EPOCH>34823</REV_AT_EPOCH><BSTAR>.94629E-3</BSTAR><MEAN_MOTION_DOT>.2644E-4</MEAN_MOTION_DOT><MEAN_MOTION_DDOT>0</MEAN_MOTION_DDOT></tleParameters></data></segment></body></omm>
<omm id="CCSDS_OMM_VERS" version="2.0">
<header><CREATION_DATE/><ORIGINATOR/></header><body><segment><metadata><OBJECT_NAME>ORBCOMM FM13</OBJECT_NAME><OBJECT_ID>1998-046H</OBJECT_ID><CENTER_NAME>EARTH</CENTER_NAME><REF_FRAME>TEME</REF_FRAME><TIME_SYSTEM>UTC</TIME_SYSTEM><MEAN_ELEMENT_THEORY>SGP4</MEAN_ELEMENT_THEORY></metadata><data><meanElements><EPOCH>2024-05-22T06:26:53.159712</EPOCH><MEAN_MOTION>14.35452604</MEAN_MOTION><ECCENTRICITY>.0003456</ECCENTRICITY><INCLINATION>44.9969</INCLINATION><RA_OF_ASC_NODE>233.6296</RA_OF_ASC_NODE><ARG_OF_PERICENTER>139.5688</ARG_OF_PERICENTER><MEAN_ANOMALY>220.5416</MEAN_ANOMALY></meanElements><tleParameters><EPHEMERIS_TYPE>0</EPHEMERIS_TYPE><CLASSIFICATION_TYPE>U</CLASSIFICATION_TYPE><NORAD_CAT_ID>25420</NORAD_CAT_ID><ELEMENT_SET_NO>999</ELEMENT_SET_NO><REV_AT_EPOCH>34815</REV_AT_EPOCH><BSTAR>.821E-3</BSTAR><MEAN_MOTION_DOT>.224E-4</MEAN_MOTION_DOT><MEAN_MOTION_DDOT>0</MEAN_MOTION_DDOT></tleParameters></data></segment></body></omm>
<omm id="CCSDS_OMM_VERS" version="2.0">
<header><CREATION_DATE/><ORIGINATOR/></header><body><segment><metadata><OBJECT_NAME>ORBCOMM FM21</OBJECT_NAME><OBJECT_ID>1998-053A</OBJECT_ID><CENTER_NAME>EARTH</CENTER_NAME><REF_FRAME>TEME</REF_FRAME><TIME_SYSTEM>UTC</TIME_SYSTEM><MEAN_ELEMENT_THEORY>SGP4</MEAN_ELEMENT_THEORY></metadata><data><meanElements><EPOCH>2024-05-20T14:51:27.773280</EPOCH><MEAN_MOTION>14.35364321</MEAN_MOTION><ECCENTRICITY>.0000652</ECCENTRICITY><INCLINATION>45.0086</INCLINATION><RA_OF_ASC_NODE>325.7520</RA_OF_ASC_NODE><ARG_OF_PERICENTER>114.8116</ARG_OF_PERICENTER><MEAN_ANOMALY>245.2799</MEAN_ANOMALY></meanElements><tleParameters><EPHEMERIS_TYPE>0</EPHEMERIS_TYPE><CLASSIFICATION_TYPE>U</CLASSIFICATION_TYPE><NORAD_CAT_ID>25475</NORAD_CAT_ID><ELEMENT_SET_NO>999</ELEMENT_SET_NO><REV_AT_EPOCH>34080</REV_AT_EPOCH><BSTAR>.1087E-2</BSTAR><MEAN_MOTION_DOT>.3006E-4</MEAN_MOTION_DOT><MEAN_MOTION_DDOT>0</MEAN_MOTION_DDOT></tleParameters></data></segment></body></omm>
<omm id="CCSDS_OMM_VERS" version="2.0">
<header><CREATION_DATE/><ORIGINATOR/></header><body><segment><metadata><OBJECT_NAME>ORBCOMM FM22</OBJECT_NAME><OBJECT_ID>1998-053B</OBJECT_ID><CENTER_NAME>EARTH</CENTER_NAME><REF_FRAME>TEME</REF_FRAME><TIME_SYSTEM>UTC</TIME_SYSTEM><MEAN_ELEMENT_THEORY>SGP4</MEAN_ELEMENT_THEORY></metadata><data><meanElements><EPOCH>2024-05-21T21:57:25.135200</EPOCH><MEAN_MOTION>14.35909204</MEAN_MOTION><ECCENTRICITY>.0001815</ECCENTRICITY><INCLINATION>45.0080</INCLINATION><RA_OF_ASC_NODE>316.8742</RA_OF_ASC_NODE><ARG_OF_PERICENTER>77.7716</ARG_OF_PERICENTER><MEAN_ANOMALY>282.3334</MEAN_ANOMALY></meanElements><tleParameters><EPHEMERIS_TYPE>0</EPHEMERIS_TYPE><CLASSIFICATION_TYPE>U</CLASSIFICATION_TYPE><NORAD_CAT_ID>25476</NORAD_CAT_ID><ELEMENT_SET_NO>999</ELEMENT_SET_NO><REV_AT_EPOCH>34134</REV_AT_EPOCH><BSTAR>.95678E-3</BSTAR><MEAN_MOTION_DOT>.2659E-4</MEAN_MOTION_DOT><MEAN_MOTION_DDOT>0</MEAN_MOTION_DDOT></tleParameters></data></segment></body></omm>
<omm id="CCSDS_OMM_VERS" version="2.0">
<header><CREATION_DATE/><ORIGINATOR/></header><body><segment><metadata><OBJECT_NAME>ORBCOMM FM23</OBJECT_NAME><OBJECT_ID>1998-053C</OBJECT_ID><CENTER_NAME>EARTH</CENTER_NAME><REF_FRAME>TEME</REF_FRAME><TIME_SYSTEM>UTC</TIME_SYSTEM><MEAN_ELEMENT_THEORY>SGP4</MEAN_ELEMENT_THEORY></metadata><data><meanElements><EPOCH>2024-05-21T21:35:39.517152</EPOCH><MEAN_MOTION>14.35418183</MEAN_MOTION><ECCENTRICITY>.0001303</ECCENTRICITY><INCLINATION>45.0089</INCLINATION><RA_OF_ASC_NODE>322.1289</RA_OF_ASC_NODE><ARG_OF_PERICENTER>85.4708</ARG_OF_PERICENTER><MEAN_ANOMALY>274.6288</MEAN_ANOMALY></meanElements><tleParameters><EPHEMERIS_TYPE>0</EPHEMERIS_TYPE><CLASSIFICATION_TYPE>U</CLASSIFICATION_TYPE><NORAD_CAT_ID>25477</NORAD_CAT_ID><ELEMENT_SET_NO>999</ELEMENT_SET_NO><REV_AT_EPOCH>34113</REV_AT_EPOCH><BSTAR>.90453E-3</BSTAR><MEAN_MOTION_DOT>.2481E-4</MEAN_MOTION_DOT><MEAN_MOTION_DDOT>0</MEAN_MOTION_DDOT></tleParameters></data></segment></body></omm>

</ndm>
